CCSDS_OMM_VERS = 2.0
CREATION_DATE  = 
ORIGINATOR     = 

OBJECT_NAME    = 2026-052C
OBJECT_ID      = 2026-052C
CENTER_NAME    = EARTH
REF_FRAME      = TEME
TIME_SYSTEM    = UTC
MEAN_ELEMENT_THEORY = SGP/SGP4

EPOCH          = 2026-03-19T19:06:04.641984
MEAN_MOTION    = 15.10119523
ECCENTRICITY   = .00112569
INCLINATION    = 97.5376
RA_OF_ASC_NODE = 154.9921
ARG_OF_PERICENTER = 255.3905
MEAN_ANOMALY   = 104.6076

EPHEMERIS_TYPE = 0
CLASSIFICATION_TYPE = U
NORAD_CAT_ID   = 68200
ELEMENT_SET_NO = 999
REV_AT_EPOCH   = 54
BSTAR          = -.12504287E-4
MEAN_MOTION_DOT = -.268E-5
MEAN_MOTION_DDOT = 0

CCSDS_OMM_VERS = 2.0
CREATION_DATE  = 
ORIGINATOR     = 

OBJECT_NAME    = 2026-052D
OBJECT_ID      = 2026-052D
CENTER_NAME    = EARTH
REF_FRAME      = TEME
TIME_SYSTEM    = UTC
MEAN_ELEMENT_THEORY = SGP/SGP4

EPOCH          = 2026-03-20T10:59:39.700032
MEAN_MOTION    = 15.10285250
ECCENTRICITY   = .0010377
INCLINATION    = 97.5385
RA_OF_ASC_NODE = 155.6415
ARG_OF_PERICENTER = 249.7525
MEAN_ANOMALY   = 110.2589

EPHEMERIS_TYPE = 0
CLASSIFICATION_TYPE = U
NORAD_CAT_ID   = 68201
ELEMENT_SET_NO = 999
REV_AT_EPOCH   = 65
BSTAR          = .28978E-3
MEAN_MOTION_DOT = .4687E-4
MEAN_MOTION_DDOT = 0

CCSDS_OMM_VERS = 2.0
CREATION_DATE  = 
ORIGINATOR     = 

OBJECT_NAME    = 2026-052E
OBJECT_ID      = 2026-052E
CENTER_NAME    = EARTH
REF_FRAME      = TEME
TIME_SYSTEM    = UTC
MEAN_ELEMENT_THEORY = SGP/SGP4

EPOCH          = 2026-03-20T10:59:38.588928
MEAN_MOTION    = 15.10287704
ECCENTRICITY   = .0010242
INCLINATION    = 97.5381
RA_OF_ASC_NODE = 155.6426
ARG_OF_PERICENTER = 254.1756
MEAN_ANOMALY   = 105.8344

EPHEMERIS_TYPE = 0
CLASSIFICATION_TYPE = U
NORAD_CAT_ID   = 68202
ELEMENT_SET_NO = 999
REV_AT_EPOCH   = 65
BSTAR          = .26921E-3
MEAN_MOTION_DOT = .435E-4
MEAN_MOTION_DDOT = 0

CCSDS_OMM_VERS = 2.0
CREATION_DATE  = 
ORIGINATOR     = 

OBJECT_NAME    = 2026-052F
OBJECT_ID      = 2026-052F
CENTER_NAME    = EARTH
REF_FRAME      = TEME
TIME_SYSTEM    = UTC
MEAN_ELEMENT_THEORY = SGP/SGP4

EPOCH          = 2026-03-20T12:34:01.186176
MEAN_MOTION    = 15.10541196
ECCENTRICITY   = .0009461
INCLINATION    = 97.5375
RA_OF_ASC_NODE = 155.7135
ARG_OF_PERICENTER = 245.4873
MEAN_ANOMALY   = 114.5371

EPHEMERIS_TYPE = 0
CLASSIFICATION_TYPE = U
NORAD_CAT_ID   = 68203
ELEMENT_SET_NO = 999
REV_AT_EPOCH   = 66
BSTAR          = .28957E-3
MEAN_MOTION_DOT = .4716E-4
MEAN_MOTION_DDOT = 0

CCSDS_OMM_VERS = 2.0
CREATION_DATE  = 
ORIGINATOR     = 

OBJECT_NAME    = 2026-052G
OBJECT_ID      = 2026-052G
CENTER_NAME    = EARTH
REF_FRAME      = TEME
TIME_SYSTEM    = UTC
MEAN_ELEMENT_THEORY = SGP/SGP4

EPOCH          = 2026-03-20T12:33:48.697056
MEAN_MOTION    = 15.10591933
ECCENTRICITY   = .0009102
INCLINATION    = 97.5377
RA_OF_ASC_NODE = 155.7079
ARG_OF_PERICENTER = 248.5521
MEAN_ANOMALY   = 111.4739

EPHEMERIS_TYPE = 0
CLASSIFICATION_TYPE = U
NORAD_CAT_ID   = 68204
ELEMENT_SET_NO = 999
REV_AT_EPOCH   = 66
BSTAR          = .28834E-3
MEAN_MOTION_DOT = .4702E-4
MEAN_MOTION_DDOT = 0

CCSDS_OMM_VERS = 2.0
CREATION_DATE  = 
ORIGINATOR     = 

OBJECT_NAME    = 2026-052J
OBJECT_ID      = 2026-052J
CENTER_NAME    = EARTH
REF_FRAME      = TEME
TIME_SYSTEM    = UTC
MEAN_ELEMENT_THEORY = SGP/SGP4

EPOCH          = 2026-03-20T04:10:32.767104
MEAN_MOTION    = 14.66909170
ECCENTRICITY   = .05485814
INCLINATION    = 97.3434
RA_OF_ASC_NODE = 155.3568
ARG_OF_PERICENTER = 0.1683
MEAN_ANOMALY   = 359.9611

EPHEMERIS_TYPE = 0
CLASSIFICATION_TYPE = U
NORAD_CAT_ID   = 68206
ELEMENT_SET_NO = 999
REV_AT_EPOCH   = 59
BSTAR          = .78048683E-3
MEAN_MOTION_DOT = .53223E-3
MEAN_MOTION_DDOT = .2106529E-5

CCSDS_OMM_VERS = 2.0
CREATION_DATE  = 
ORIGINATOR     = 

OBJECT_NAME    = TEN-KOH 2
OBJECT_ID      = 2025-241B
CENTER_NAME    = EARTH
REF_FRAME      = TEME
TIME_SYSTEM    = UTC
MEAN_ELEMENT_THEORY = SGP/SGP4

EPOCH          = 2026-03-20T04:29:06.078624
MEAN_MOTION    = 15.22564747
ECCENTRICITY   = .00044597
INCLINATION    = 51.6352
RA_OF_ASC_NODE = 22.9443
ARG_OF_PERICENTER = 191.7138
MEAN_ANOMALY   = 168.3736

EPHEMERIS_TYPE = 0
CLASSIFICATION_TYPE = U
NORAD_CAT_ID   = 68261
ELEMENT_SET_NO = 999
REV_AT_EPOCH   = 134
BSTAR          = .30984467E-3
MEAN_MOTION_DOT = .6967E-4
MEAN_MOTION_DDOT = 0

