2026-052C               
1 68200U 26052C   26078.79588706 -.00000268  00000+0 -12504-4 0  9997
2 68200  97.5376 154.9921 0011256 255.3905 104.6076 15.10119523   541
2026-052D               
1 68201U 26052D   26079.45809838  .00004687  00000+0  28978-3 0  9992
2 68201  97.5385 155.6415 0010377 249.7525 110.2589 15.10285250   651
2026-052E               
1 68202U 26052E   26079.45808552  .00004350  00000+0  26921-3 0  9998
2 68202  97.5381 155.6426 0010242 254.1756 105.8344 15.10287704   652
2026-052F               
1 68203U 26052F   26079.52362484  .00004716  00000+0  28957-3 0  9993
2 68203  97.5375 155.7135 0009461 245.4873 114.5371 15.10541196   664
2026-052G               
1 68204U 26052G   26079.52348029  .00004702  00000+0  28834-3 0  9992
2 68204  97.5377 155.7079 0009102 248.5521 111.4739 15.10591933   668
2026-052J               
1 68206U 26052J   26079.17399036  .00053223  21065-5  78049-3 0  9994
2 68206  97.3434 155.3568 0548581   0.1683 359.9611 14.66909170   597
TEN-KOH 2               
1 68261U 25241B   26079.18687591  .00006967  00000+0  30984-3 0  9990
2 68261  51.6352  22.9443 0004459 191.7138 168.3736 15.22564747  1348
